start=new Date('2022-04-29T00:00:00.000Z').valueOf();
sats=[{"TLE_LINE1":"1 48322U 21036AY  22118.51221160  .00002590  00000-0  19268-3 0  9998","EPHEMERIS_TYPE":"0","FILE":"3420061","TIME_SYSTEM":"UTC","PERIAPSIS":"546.268","OBJECT_TYPE":"PAYLOAD","MEAN_ANOMALY":"292.8460","COUNTRY_CODE":"US","MEAN_MOTION_DDOT":"0.0000000000000","BSTAR":"0.00019268000000","CLASSIFICATION_TYPE":"U","REF_FRAME":"TEME","CENTER_NAME":"EARTH","GP_ID":"202218129","ELEMENT_SET_NO":"999","ECCENTRICITY":"0.00013340","ARG_OF_PERICENTER":"67.2669","INCLINATION":"53.0546","REV_AT_EPOCH":"5533","RA_OF_ASC_NODE":"316.6327","NORAD_CAT_ID":"48322","MEAN_MOTION_DOT":"0.00002590","PERIOD":"95.592","SEMIMAJOR_AXIS":"6925.327","TLE_LINE2":"2 48322  53.0546 316.6327 0001334  67.2669 292.8460 15.06407051 55335","OBJECT_NAME":"STARLINK-2477","LAUNCH_DATE":"2021-04-29","MEAN_ELEMENT_THEORY":"SGP4","EPOCH":"2022-04-28T12:17:35.082240","DECAY_DATE":null,"SITE":"AFETR","RCS_SIZE":"MEDIUM","MEAN_MOTION":"15.06407051","APOAPSIS":"548.116","OBJECT_ID":"2021-036AY"},{"MEAN_ANOMALY":"304.8666","OBJECT_TYPE":"PAYLOAD","COUNTRY_CODE":"US","FILE":"3420061","PERIAPSIS":"545.987","TIME_SYSTEM":"UTC","EPHEMERIS_TYPE":"0","TLE_LINE1":"1 48323U 21036AZ  22118.50852437  .00001010  00000-0  86715-4 0  9993","APOAPSIS":"548.414","MEAN_MOTION":"15.06404317","OBJECT_ID":"2021-036AZ","EPOCH":"2022-04-28T12:12:16.505568","SITE":"AFETR","DECAY_DATE":null,"RCS_SIZE":"LARGE","LAUNCH_DATE":"2021-04-29","MEAN_ELEMENT_THEORY":"SGP4","TLE_LINE2":"2 48323  53.0558 316.6597 0001752  55.2488 304.8666 15.06404317 55332","OBJECT_NAME":"STARLINK-2515","NORAD_CAT_ID":"48323","MEAN_MOTION_DOT":"0.00001010","PERIOD":"95.592","SEMIMAJOR_AXIS":"6925.335","RA_OF_ASC_NODE":"316.6597","INCLINATION":"53.0558","REV_AT_EPOCH":"5533","GP_ID":"202216379","ECCENTRICITY":"0.00017520","ELEMENT_SET_NO":"999","ARG_OF_PERICENTER":"55.2488","MEAN_MOTION_DDOT":"0.0000000000000","BSTAR":"0.00008671500000","CLASSIFICATION_TYPE":"U","REF_FRAME":"TEME","CENTER_NAME":"EARTH"},{"EPHEMERIS_TYPE":"0","TLE_LINE1":"1 48324U 21036BA  22118.77022565  .00002373  00000-0  17813-3 0  9999","PERIAPSIS":"546.203","TIME_SYSTEM":"UTC","FILE":"3420198","OBJECT_TYPE":"PAYLOAD","MEAN_ANOMALY":"286.2776","COUNTRY_CODE":"US","INCLINATION":"53.0531","REV_AT_EPOCH":"5596","RA_OF_ASC_NODE":"315.4812","MEAN_MOTION_DOT":"0.00002373","NORAD_CAT_ID":"48324","SEMIMAJOR_AXIS":"6925.328","PERIOD":"95.592","BSTAR":"0.00017813000000","MEAN_MOTION_DDOT":"0.0000000000000","REF_FRAME":"TEME","CENTER_NAME":"EARTH","CLASSIFICATION_TYPE":"U","ECCENTRICITY":"0.00014290","ELEMENT_SET_NO":"999","GP_ID":"202223556","ARG_OF_PERICENTER":"73.8370","SITE":"AFETR","DECAY_DATE":null,"EPOCH":"2022-04-28T18:29:07.496160","RCS_SIZE":"LARGE","MEAN_MOTION":"15.06406770","APOAPSIS":"548.182","OBJECT_ID":"2021-036BA","TLE_LINE2":"2 48324  53.0531 315.4812 0001429  73.8370 286.2776 15.06406770 55967","OBJECT_NAME":"STARLINK-2527","MEAN_ELEMENT_THEORY":"SGP4","LAUNCH_DATE":"2021-04-29"},{"PERIAPSIS":"546.113","TIME_SYSTEM":"UTC","FILE":"3420061","MEAN_ANOMALY":"295.6515","OBJECT_TYPE":"PAYLOAD","COUNTRY_CODE":"US","TLE_LINE1":"1 48325U 21036BB  22118.03673230  .00007074  00000-0  49318-3 0  9998","EPHEMERIS_TYPE":"0","TLE_LINE2":"2 48325  53.0544 318.7860 0001539  64.4633 295.6515 15.06411306 55260","OBJECT_NAME":"STARLINK-2495","MEAN_ELEMENT_THEORY":"SGP4","LAUNCH_DATE":"2021-04-29","SITE":"AFETR","DECAY_DATE":null,"EPOCH":"2022-04-28T00:52:53.670720","RCS_SIZE":"LARGE","MEAN_MOTION":"15.06411306","APOAPSIS":"548.245","OBJECT_ID":"2021-036BB","BSTAR":"0.00049318000000","MEAN_MOTION_DDOT":"0.0000000000000","CENTER_NAME":"EARTH","REF_FRAME":"TEME","CLASSIFICATION_TYPE":"U","ELEMENT_SET_NO":"999","ECCENTRICITY":"0.00015390","GP_ID":"202217377","ARG_OF_PERICENTER":"64.4633","INCLINATION":"53.0544","REV_AT_EPOCH":"5526","RA_OF_ASC_NODE":"318.7860","MEAN_MOTION_DOT":"0.00007074","NORAD_CAT_ID":"48325","SEMIMAJOR_AXIS":"6925.314","PERIOD":"95.591"},{"TLE_LINE1":"1 48326U 21036BC  22118.49746550  .00002727  00000-0  20184-3 0  9995","EPHEMERIS_TYPE":"0","FILE":"3419728","PERIAPSIS":"546.290","TIME_SYSTEM":"UTC","COUNTRY_CODE":"US","OBJECT_TYPE":"PAYLOAD","MEAN_ANOMALY":"271.0637","CLASSIFICATION_TYPE":"U","REF_FRAME":"TEME","CENTER_NAME":"EARTH","MEAN_MOTION_DDOT":"0.0000000000000","BSTAR":"0.00020184000000","ARG_OF_PERICENTER":"89.0500","GP_ID":"202187891","ELEMENT_SET_NO":"999","ECCENTRICITY":"0.00012920","RA_OF_ASC_NODE":"316.7065","INCLINATION":"53.0554","REV_AT_EPOCH":"5592","PERIOD":"95.592","SEMIMAJOR_AXIS":"6925.320","NORAD_CAT_ID":"48326","MEAN_MOTION_DOT":"0.00002727","OBJECT_NAME":"STARLINK-2498","TLE_LINE2":"2 48326  53.0554 316.7065 0001292  89.0500 271.0637 15.06409416 55924","LAUNCH_DATE":"2021-04-29","MEAN_ELEMENT_THEORY":"SGP4","RCS_SIZE":"LARGE","EPOCH":"2022-04-28T11:56:21.019200","DECAY_DATE":null,"SITE":"AFETR","MEAN_MOTION":"15.06409416","APOAPSIS":"548.079","OBJECT_ID":"2021-036BC"},{"TIME_SYSTEM":"UTC","PERIAPSIS":"546.196","FILE":"3420160","COUNTRY_CODE":"US","OBJECT_TYPE":"PAYLOAD","MEAN_ANOMALY":"291.8083","TLE_LINE1":"1 48327U 21036BD  22118.75916756  .00003038  00000-0  22270-3 0  9996","EPHEMERIS_TYPE":"0","OBJECT_NAME":"STARLINK-2502","TLE_LINE2":"2 48327  53.0552 315.5262 0001420  68.3057 291.8083 15.06411169 55966","MEAN_ELEMENT_THEORY":"SGP4","LAUNCH_DATE":"2021-04-29","RCS_SIZE":"LARGE","SITE":"AFETR","DECAY_DATE":null,"EPOCH":"2022-04-28T18:13:12.077184","APOAPSIS":"548.163","MEAN_MOTION":"15.06411169","OBJECT_ID":"2021-036BD","CENTER_NAME":"EARTH","REF_FRAME":"TEME","CLASSIFICATION_TYPE":"U","BSTAR":"0.00022270000000","MEAN_MOTION_DDOT":"0.0000000000000","ARG_OF_PERICENTER":"68.3057","ECCENTRICITY":"0.00014200","ELEMENT_SET_NO":"999","GP_ID":"202222537","RA_OF_ASC_NODE":"315.5262","REV_AT_EPOCH":"5596","INCLINATION":"53.0552","SEMIMAJOR_AXIS":"6925.314","PERIOD":"95.591","MEAN_MOTION_DOT":"0.00003038","NORAD_CAT_ID":"48327"},{"OBJECT_NAME":"STARLINK-2504","TLE_LINE2":"2 48328  53.0566 317.6337 0001553  76.2930 283.8232 15.06397963 55303","MEAN_ELEMENT_THEORY":"SGP4","LAUNCH_DATE":"2021-04-29","RCS_SIZE":"LARGE","SITE":"AFETR","DECAY_DATE":null,"EPOCH":"2022-04-28T06:59:07.611648","MEAN_MOTION":"15.06397963","APOAPSIS":"548.295","OBJECT_ID":"2021-036BE","REF_FRAME":"TEME","CENTER_NAME":"EARTH","CLASSIFICATION_TYPE":"U","BSTAR":"0.00019700000000","MEAN_MOTION_DDOT":"0.0000000000000","ARG_OF_PERICENTER":"76.2930","ELEMENT_SET_NO":"999","ECCENTRICITY":"0.00015530","GP_ID":"202216630","RA_OF_ASC_NODE":"317.6337","INCLINATION":"53.0566","REV_AT_EPOCH":"5530","SEMIMAJOR_AXIS":"6925.355","PERIOD":"95.592","MEAN_MOTION_DOT":"0.00002654","NORAD_CAT_ID":"48328","PERIAPSIS":"546.144","TIME_SYSTEM":"UTC","FILE":"3420061","COUNTRY_CODE":"US","MEAN_ANOMALY":"283.8232","OBJECT_TYPE":"PAYLOAD","TLE_LINE1":"1 48328U 21036BE  22118.29106032  .00002654  00000-0  19700-3 0  9991","EPHEMERIS_TYPE":"0"},{"SEMIMAJOR_AXIS":"6925.301","PERIOD":"95.591","MEAN_MOTION_DOT":"0.00002012","NORAD_CAT_ID":"48329","REV_AT_EPOCH":"5596","INCLINATION":"53.0539","RA_OF_ASC_NODE":"315.5739","ARG_OF_PERICENTER":"70.6126","ELEMENT_SET_NO":"999","ECCENTRICITY":"0.00015050","GP_ID":"202224140","CENTER_NAME":"EARTH","REF_FRAME":"TEME","CLASSIFICATION_TYPE":"U","BSTAR":"0.00015384000000","MEAN_MOTION_DDOT":"0.0000000000000","APOAPSIS":"548.209","MEAN_MOTION":"15.06415406","OBJECT_ID":"2021-036BF","RCS_SIZE":"LARGE","DECAY_DATE":null,"SITE":"AFETR","EPOCH":"2022-04-28T18:02:34.731168","MEAN_ELEMENT_THEORY":"SGP4","LAUNCH_DATE":"2021-04-29","OBJECT_NAME":"STARLINK-2510","TLE_LINE2":"2 48329  53.0539 315.5739 0001505  70.6126 289.5025 15.06415406 55967","EPHEMERIS_TYPE":"0","TLE_LINE1":"1 48329U 21036BF  22118.75179087  .00002012  00000-0  15384-3 0  9995","COUNTRY_CODE":"US","OBJECT_TYPE":"PAYLOAD","MEAN_ANOMALY":"289.5025","PERIAPSIS":"546.124","TIME_SYSTEM":"UTC","FILE":"3420217"},{"RCS_SIZE":"LARGE","DECAY_DATE":null,"SITE":"AFETR","EPOCH":"2022-04-28T17:57:16.063776","MEAN_MOTION":"15.06421978","APOAPSIS":"548.162","OBJECT_ID":"2021-036BG","OBJECT_NAME":"STARLINK-2501","TLE_LINE2":"2 48330  53.0539 315.5875 0001467  64.5786 295.5354 15.06421978 55964","MEAN_ELEMENT_THEORY":"SGP4","LAUNCH_DATE":"2021-04-29","INCLINATION":"53.0539","RA_OF_ASC_NODE":"315.5875","REV_AT_EPOCH":"5596","SEMIMAJOR_AXIS":"6925.281","PERIOD":"95.591","MEAN_MOTION_DOT":"0.00002318","NORAD_CAT_ID":"48330","REF_FRAME":"TEME","CENTER_NAME":"EARTH","CLASSIFICATION_TYPE":"U","BSTAR":"0.00017434000000","MEAN_MOTION_DDOT":"0.0000000000000","ARG_OF_PERICENTER":"64.5786","ELEMENT_SET_NO":"999","ECCENTRICITY":"0.00014670","GP_ID":"202226856","TIME_SYSTEM":"UTC","PERIAPSIS":"546.130","FILE":"3420328","COUNTRY_CODE":"US","OBJECT_TYPE":"PAYLOAD","MEAN_ANOMALY":"295.5354","EPHEMERIS_TYPE":"0","TLE_LINE1":"1 48330U 21036BG  22118.74810259  .00002318  00000-0  17434-3 0  9996"},{"FILE":"3420061","PERIAPSIS":"546.235","TIME_SYSTEM":"UTC","COUNTRY_CODE":"US","OBJECT_TYPE":"PAYLOAD","MEAN_ANOMALY":"292.7642","EPHEMERIS_TYPE":"0","TLE_LINE1":"1 48331U 21036BH  22118.27999494  .00002378  00000-0  17845-3 0  9996","RCS_SIZE":"LARGE","EPOCH":"2022-04-28T06:43:11.562816","SITE":"AFETR","DECAY_DATE":null,"MEAN_MOTION":"15.06408903","APOAPSIS":"548.138","OBJECT_ID":"2021-036BH","OBJECT_NAME":"STARLINK-2514","TLE_LINE2":"2 48331  53.0550 317.6926 0001374  67.3492 292.7642 15.06408903 55300","LAUNCH_DATE":"2021-04-29","MEAN_ELEMENT_THEORY":"SGP4","REV_AT_EPOCH":"5530","RA_OF_ASC_NODE":"317.6926","INCLINATION":"53.0550","PERIOD":"95.592","SEMIMAJOR_AXIS":"6925.321","NORAD_CAT_ID":"48331","MEAN_MOTION_DOT":"0.00002378","CLASSIFICATION_TYPE":"U","REF_FRAME":"TEME","CENTER_NAME":"EARTH","MEAN_MOTION_DDOT":"0.0000000000000","BSTAR":"0.00017845000000","ARG_OF_PERICENTER":"67.3492","GP_ID":"202216380","ELEMENT_SET_NO":"999","ECCENTRICITY":"0.00013740"}];
